SPACEMOBILE-006         
1 67232U 25309A   26133.35567041  .00001024  00000+0  64664-4 0  9991
2 67232  52.9961 131.1441 0011756  30.9130 329.2554 15.18344917 21304
